{
  "type": "FeatureCollection",
  "features": [
    {
      "type": "Feature",
      "geometry": {
        "type": "Polygon",
        "coordinates": [
          [
            [
              139.6670885,
              35.6067282
            ],
            [
              139.6677805,
              35.6067282
            ],
            [
              139.6677805,
              35.6071872
            ],
            [
              139.6670885,
              35.6071872
            ],
            [
              139.6670885,
              35.6067282
            ]
          ]
        ]
      },
      "properties": {
        "building_id": "bldg_sample_001",
        "name": "架空:目黒プラザ（サンプルデータ）",
        "usage_class": "commercial_large",
        "ward_code": "13110",
        "storeys_below": 1,
        "total_floor_area_m2": 12000.0
      }
    },
    {
      "type": "Feature",
      "geometry": {
        "type": "Polygon",
        "coordinates": [
          [
            [
              139.6721471,
              35.6033673
            ],
            [
              139.6724887,
              35.6033673
            ],
            [
              139.6724887,
              35.6036288
            ],
            [
              139.6721471,
              35.6036288
            ],
            [
              139.6721471,
              35.6033673
            ]
          ]
        ]
      },
      "properties": {
        "building_id": "bldg_sample_002",
        "name": "架空:せたがや中央病院（サンプルデータ）",
        "usage_class": "hospital",
        "ward_code": "13112",
        "storeys_below": 0,
        "total_floor_area_m2": 2500.0
      }
    },
    {
      "type": "Feature",
      "geometry": {
        "type": "Polygon",
        "coordinates": [
          [
            [
              139.6750648,
              35.6060365
            ],
            [
              139.6751758,
              35.6060365
            ],
            [
              139.6751758,
              35.6062377
            ],
            [
              139.6750648,
              35.6062377
            ],
            [
              139.6750648,
              35.6060365
            ]
          ]
        ]
      },
      "properties": {
        "building_id": "bldg_sample_003",
        "name": "架空:個人住宅A（サンプルデータ）",
        "usage_class": "residential",
        "ward_code": "13110",
        "storeys_below": 0,
        "total_floor_area_m2": 120.0
      }
    },
    {
      "type": "Feature",
      "geometry": {
        "type": "Polygon",
        "coordinates": [
          [
            [
              139.6644484,
              35.6107298
            ],
            [
              139.6645886,
              35.6107298
            ],
            [
              139.6645886,
              35.610889
            ],
            [
              139.6644484,
              35.610889
            ],
            [
              139.6644484,
              35.6107298
            ]
          ]
        ]
      },
      "properties": {
        "building_id": "bldg_sample_004",
        "name": "架空:雑用途小規模棟（サンプルデータ）",
        "usage_class": "other",
        "ward_code": "13110",
        "storeys_below": 0,
        "total_floor_area_m2": 800.0
      }
    },
    {
      "type": "Feature",
      "geometry": {
        "type": "Polygon",
        "coordinates": [
          [
            [
              139.6719013,
              35.6035589
            ],
            [
              139.6720323,
              35.6035589
            ],
            [
              139.6720323,
              35.6037293
            ],
            [
              139.6719013,
              35.6037293
            ],
            [
              139.6719013,
              35.6035589
            ]
          ]
        ]
      },
      "properties": {
        "building_id": "bldg_sample_005",
        "name": "架空:複合用途棟（サンプルデータ）",
        "usage_class": "other",
        "ward_code": "13110",
        "storeys_below": 1,
        "total_floor_area_m2": 4200.0
      }
    },
    {
      "type": "Feature",
      "geometry": {
        "type": "Polygon",
        "coordinates": [
          [
            [
              139.6730268,
              35.609936
            ],
            [
              139.6731812,
              35.609936
            ],
            [
              139.6731812,
              35.6100806
            ],
            [
              139.6730268,
              35.6100806
            ],
            [
              139.6730268,
              35.609936
            ]
          ]
        ]
      },
      "properties": {
        "building_id": "bldg_sample_007",
        "name": "架空:大田商店街C（サンプルデータ）",
        "usage_class": "commercial",
        "ward_code": "13113",
        "storeys_below": 0,
        "total_floor_area_m2": 1800.0
      }
    },
    {
      "type": "Feature",
      "geometry": {
        "type": "Polygon",
        "coordinates": [
          [
            [
              139.6705424,
              35.6122073
            ],
            [
              139.6706957,
              35.6122073
            ],
            [
              139.6706957,
              35.6123529
            ],
            [
              139.6705424,
              35.6123529
            ],
            [
              139.6705424,
              35.6122073
            ]
          ]
        ]
      },
      "properties": {
        "building_id": "bldg_sample_008",
        "name": "架空:自由が丘駅ビル（サンプルデータ）",
        "usage_class": "station",
        "ward_code": "13110",
        "storeys_below": null,
        "total_floor_area_m2": 9000.0
      }
    },
    {
      "type": "Feature",
      "geometry": {
        "type": "Polygon",
        "coordinates": [
          [
            [
              139.6634109,
              35.605401
            ],
            [
              139.6635422,
              35.605401
            ],
            [
              139.6635422,
              35.6055711
            ],
            [
              139.6634109,
              35.6055711
            ],
            [
              139.6634109,
              35.605401
            ]
          ]
        ]
      },
      "properties": {
        "building_id": "bldg_sample_009",
        "name": "架空:等々力駅舎（サンプルデータ）",
        "usage_class": "station",
        "ward_code": "13112",
        "storeys_below": 0,
        "total_floor_area_m2": 1200.0
      }
    },
    {
      "type": "Feature",
      "geometry": {
        "type": "Polygon",
        "coordinates": [
          [
            [
              139.6655008,
              35.6058393
            ],
            [
              139.6656404,
              35.6058393
            ],
            [
              139.6656404,
              35.6059993
            ],
            [
              139.6655008,
              35.6059993
            ],
            [
              139.6655008,
              35.6058393
            ]
          ]
        ]
      },
      "properties": {
        "building_id": "bldg_sample_010",
        "name": "架空:大田データセンター（サンプルデータ）",
        "usage_class": "datacenter",
        "ward_code": "13113",
        "storeys_below": 2,
        "total_floor_area_m2": 15000.0
      }
    },
    {
      "type": "Feature",
      "geometry": {
        "type": "Polygon",
        "coordinates": [
          [
            [
              139.6683288,
              35.6074005
            ],
            [
              139.6685578,
              35.6074005
            ],
            [
              139.6685578,
              35.6074981
            ],
            [
              139.6683288,
              35.6074981
            ],
            [
              139.6683288,
              35.6074005
            ]
          ]
        ]
      },
      "properties": {
        "building_id": "bldg_sample_011",
        "name": "架空:目黒区防災センター（サンプルデータ）",
        "usage_class": "public_critical",
        "ward_code": "13110",
        "storeys_below": 1,
        "total_floor_area_m2": 8000.0
      }
    },
    {
      "type": "Feature",
      "geometry": {
        "type": "Polygon",
        "coordinates": [
          [
            [
              139.668722,
              35.6087628
            ],
            [
              139.6688409,
              35.6087628
            ],
            [
              139.6688409,
              35.6089506
            ],
            [
              139.668722,
              35.6089506
            ],
            [
              139.668722,
              35.6087628
            ]
          ]
        ]
      },
      "properties": {
        "building_id": "bldg_sample_012",
        "name": "架空:せたがや特別養護老人ホーム（サンプルデータ）",
        "usage_class": "welfare",
        "ward_code": "13112",
        "storeys_below": 0,
        "total_floor_area_m2": 3500.0
      }
    },
    {
      "type": "Feature",
      "geometry": {
        "type": "Polygon",
        "coordinates": [
          [
            [
              139.6713544,
              35.6025614
            ],
            [
              139.6715445,
              35.6025614
            ],
            [
              139.6715445,
              35.6026788
            ],
            [
              139.6713544,
              35.6026788
            ],
            [
              139.6713544,
              35.6025614
            ]
          ]
        ]
      },
      "properties": {
        "building_id": "bldg_sample_013",
        "name": "架空:大田物流センター大（サンプルデータ）",
        "usage_class": "logistics",
        "ward_code": "13113",
        "storeys_below": 0,
        "total_floor_area_m2": 15000.0
      }
    },
    {
      "type": "Feature",
      "geometry": {
        "type": "Polygon",
        "coordinates": [
          [
            [
              139.6674305,
              35.6091964
            ],
            [
              139.6676482,
              35.6091964
            ],
            [
              139.6676482,
              35.609299
            ],
            [
              139.6674305,
              35.609299
            ],
            [
              139.6674305,
              35.6091964
            ]
          ]
        ]
      },
      "properties": {
        "building_id": "bldg_sample_014",
        "name": "架空:大田物流センター小（サンプルデータ）",
        "usage_class": "logistics",
        "ward_code": "13113",
        "storeys_below": 0,
        "total_floor_area_m2": 4000.0
      }
    },
    {
      "type": "Feature",
      "geometry": {
        "type": "Polygon",
        "coordinates": [
          [
            [
              139.6717763,
              35.609223
            ],
            [
              139.6719329,
              35.609223
            ],
            [
              139.6719329,
              35.6093656
            ],
            [
              139.6717763,
              35.6093656
            ],
            [
              139.6717763,
              35.609223
            ]
          ]
        ]
      },
      "properties": {
        "building_id": "bldg_sample_015",
        "name": "架空:目黒第三小学校（サンプルデータ）",
        "usage_class": "school",
        "ward_code": "13110",
        "storeys_below": 0,
        "total_floor_area_m2": 5000.0
      }
    },
    {
      "type": "Feature",
      "geometry": {
        "type": "Polygon",
        "coordinates": [
          [
            [
              139.6671821,
              35.6030101
            ],
            [
              139.6673804,
              35.6030101
            ],
            [
              139.6673804,
              35.6031227
            ],
            [
              139.6671821,
              35.6031227
            ],
            [
              139.6671821,
              35.6030101
            ]
          ]
        ]
      },
      "properties": {
        "building_id": "bldg_sample_016",
        "name": "架空:せたがやタワーレジデンス（サンプルデータ）",
        "usage_class": "residential_large",
        "ward_code": "13112",
        "storeys_below": 1,
        "total_floor_area_m2": 18000.0
      }
    },
    {
      "type": "Feature",
      "geometry": {
        "type": "Polygon",
        "coordinates": [
          [
            [
              139.6653638,
              35.6102124
            ],
            [
              139.6655093,
              35.6102124
            ],
            [
              139.6655093,
              35.6103659
            ],
            [
              139.6653638,
              35.6103659
            ],
            [
              139.6653638,
              35.6102124
            ]
          ]
        ]
      },
      "properties": {
        "building_id": "bldg_sample_017",
        "name": "架空:大田オフィスD（サンプルデータ）",
        "usage_class": "office",
        "ward_code": "13113",
        "storeys_below": 1,
        "total_floor_area_m2": null
      }
    },
    {
      "type": "Feature",
      "geometry": {
        "type": "Polygon",
        "coordinates": [
          [
            [
              139.673653,
              35.610342
            ],
            [
              139.6738109,
              35.610342
            ],
            [
              139.6738109,
              35.6104834
            ],
            [
              139.673653,
              35.6104834
            ],
            [
              139.673653,
              35.610342
            ]
          ]
        ]
      },
      "properties": {
        "building_id": "bldg_sample_018",
        "name": "架空:自由が丘商店D（サンプルデータ）",
        "usage_class": "commercial",
        "ward_code": "13110",
        "storeys_below": 0,
        "total_floor_area_m2": 1200.0
      }
    },
    {
      "type": "Feature",
      "geometry": {
        "type": "Polygon",
        "coordinates": [
          [
            [
              139.6639811,
              35.604909
            ],
            [
              139.6641221,
              35.604909
            ],
            [
              139.6641221,
              35.6050674
            ],
            [
              139.6639811,
              35.6050674
            ],
            [
              139.6639811,
              35.604909
            ]
          ]
        ]
      },
      "properties": {
        "building_id": "bldg_sample_019",
        "name": "架空:目黒モール（地下階不明）（サンプルデータ）",
        "usage_class": "commercial_large",
        "ward_code": "13110",
        "storeys_below": null,
        "total_floor_area_m2": 11000.0
      }
    },
    {
      "type": "Feature",
      "geometry": {
        "type": "Polygon",
        "coordinates": [
          [
            [
              139.6693807,
              35.6020468
            ],
            [
              139.6695079,
              35.6020468
            ],
            [
              139.6695079,
              35.6022224
            ],
            [
              139.6693807,
              35.6022224
            ],
            [
              139.6693807,
              35.6020468
            ]
          ]
        ]
      },
      "properties": {
        "building_id": "bldg_sample_020",
        "name": "架空:大田臨海倉庫（サンプルデータ）",
        "usage_class": "logistics",
        "ward_code": "13113",
        "storeys_below": 0,
        "total_floor_area_m2": 8000.0
      }
    }
  ]
}
